{"epoch":1784902576,"count":18312,"objects":[{"id":"22490","name":"SCD 1","type":"PAYLOAD","l1":"1 22490U 93009B   26204.75495455  .00000381  00000-0  52997-4 0  9994","l2":"2 22490  24.9709 341.7909 0041896 164.7369 334.4973 14.46131271766414"},{"id":"25397","name":"TECHSAT 1B","type":"PAYLOAD","l1":"1 25397U 98043D   26204.45017931  .00000045  00000-0  39520-4 0  9996","l2":"2 25397  99.0092 198.1273 0002334 101.8892 258.2548 14.24434535456496"},{"id":"25504","name":"SCD 2","type":"PAYLOAD","l1":"1 25504U 98060A   26205.32269472  .00000360  00000-0  49634-4 0  9998","l2":"2 25504  24.9935 203.1445 0016868 154.7669 341.2518 14.45537148465704"},{"id":"25757","name":"TUBSAT","type":"PAYLOAD","l1":"1 25757U 99029B   26204.94295931  .00000081  00000-0  31840-4 0  9990","l2":"2 25757  98.6718 201.6603 0013182 235.9265 124.0679 14.52434747438580"},{"id":"25994","name":"TERRA","type":"PAYLOAD","l1":"1 25994U 99068A   26205.27222531  .00000356  00000-0  81453-4 0  9999","l2":"2 25994  97.9435 253.3440 0003676 104.8827 319.5785 14.61129252415024"},{"id":"27004","name":"MAROC TUBSAT","type":"PAYLOAD","l1":"1 27004U 01056D   26205.32570897 -.00000012  00000-0  39726-4 0  9996","l2":"2 27004  99.8105  22.8892 0020436  49.5021  71.8524 13.70263841231271"},{"id":"27424","name":"AQUA","type":"PAYLOAD","l1":"1 27424U 02022A   26205.28950811  .00000757  00000-0  16037-3 0  9993","l2":"2 27424  98.4304 175.3196 0001388 102.2399   2.4836 14.62139263288690"},{"id":"28220","name":"TANSUO 1","type":"PAYLOAD","l1":"1 28220U 04012A   26205.16418428  .00017408  00000-0  52053-3 0  9998","l2":"2 28220  97.8678 285.6570 0004543 234.4778 125.6041 15.34635442216763"},{"id":"28376","name":"AURA","type":"PAYLOAD","l1":"1 28376U 04026A   26205.30233589  .00000748  00000-0  16109-3 0  9995","l2":"2 28376  98.3436 162.0685 0001452  93.8390 266.2977 14.61378510171636"},{"id":"28649","name":"CARTOSAT-1","type":"PAYLOAD","l1":"1 28649U 05017A   26205.05397040  .00001167  00000-0  12298-3 0  9995","l2":"2 28649  97.5308 226.4468 0000890  59.6128 300.5179 14.91134390149311"},{"id":"28893","name":"SINAH 1","type":"PAYLOAD","l1":"1 28893U 05043D   26205.29879148  .00000347  00000-0  75262-4 0  9995","l2":"2 28893  98.2903 339.8485 0015019 155.6163 204.5753 14.64180575105953"},{"id":"29228","name":"RESURS DK-1","type":"PAYLOAD","l1":"1 29228U 06021A   26205.31589494  .00001851  00000-0  10964-3 0  9998","l2":"2 29228  69.9299 243.4302 0007609 261.5867  98.4437 15.13345634108193"},{"id":"29268","name":"KOMPSAT 2","type":"PAYLOAD","l1":"1 29268U 06031A   26205.33143698  .00000183  00000-0  42910-4 0  9991","l2":"2 29268  97.8325  27.9833 0013467 320.7799 160.4388 14.64679173 66913"},{"id":"29709","name":"LAPAN-TUBSAT","type":"PAYLOAD","l1":"1 29709U 07001A   26205.28982125  .00000763  00000-0  93886-4 0  9991","l2":"2 29709  98.1364 205.3537 0013547  67.6273 292.6376 14.85983695 56662"},{"id":"31113","name":"HAIYANG 1B","type":"PAYLOAD","l1":"1 31113U 07010A   26204.36335632  .00000082  00000-0  46813-4 0  9998","l2":"2 31113  98.3523 184.8102 0014826  93.6361 266.6518 14.31034891  5816"},{"id":"31598","name":"SKYMED 1","type":"PAYLOAD","l1":"1 31598U 07023A   26205.29440332  .00003390  00000-0  29782-3 0  9996","l2":"2 31598  97.8863  37.4659 0001911  91.3853 268.7587 14.97262090 35342"},{"id":"31698","name":"TERRA SAR X","type":"PAYLOAD","l1":"1 31698U 07026A   26203.49713428  .00000259  00000-0  15523-4 0  9999","l2":"2 31698  97.4457 210.7016 0001797  80.1769 279.9668 15.19149840 58582"},{"id":"32060","name":"WORLDVIEW 1","type":"PAYLOAD","l1":"1 32060U 07041A   26205.31248246  .00006824  00000-0  27926-3 0  9997","l2":"2 32060  97.3902 324.5393 0002398 172.8715 187.2557 15.24641099 48531"},{"id":"32289","name":"YAOGAN 3","type":"PAYLOAD","l1":"1 32289U 07055A   26205.31032089  .00002889  00000-0  29857-3 0  9993","l2":"2 32289  97.8153 234.8217 0001578  86.6009 273.5390 14.90911324 11405"},{"id":"32376","name":"SKYMED 2","type":"PAYLOAD","l1":"1 32376U 07059A   26205.29184947  .00000455  00000-0  63737-4 0  9995","l2":"2 32376  97.8898  28.3539 0001481  93.8299 266.3083 14.82156641  7504"},{"id":"32382","name":"RADARSAT 2","type":"PAYLOAD","l1":"1 32382U 07061A   26205.33228181  .00000287  00000-0  12830-3 0  9999","l2":"2 32382  98.5795 211.7352 0001319  86.7903 273.3430 14.29981867971263"},{"id":"32783","name":"CARTOSAT 2A","type":"PAYLOAD","l1":"1 32783U 08021A   26205.31750142  .00000829  00000-0  11814-3 0  9999","l2":"2 32783  97.7617 252.7551 0011683 358.9363   1.1822 14.79285675984295"},{"id":"33320","name":"HJ-1A","type":"PAYLOAD","l1":"1 33320U 08041A   26205.31782332  .00002002  00000-0  24549-3 0  9999","l2":"2 33320  97.6709 189.7263 0019665  21.5100 338.6937 14.84068118963911"},{"id":"33321","name":"HJ-1B","type":"PAYLOAD","l1":"1 33321U 08041B   26205.30398272  .00001014  00000-0  12835-3 0  9992","l2":"2 33321  97.6546 192.7717 0037836  62.6747 297.8312 14.83378829963917"},{"id":"33331","name":"GEOEYE 1","type":"PAYLOAD","l1":"1 33331U 08042A   26205.24735160  .00000428  00000-0  89521-4 0  9993","l2":"2 33331  98.1320 278.7368 0003380 312.3370  47.7546 14.64655640955577"},{"id":"33396","name":"THEOS","type":"PAYLOAD","l1":"1 33396U 08049A   26205.31037633 -.00000135  00000-0 -43340-4 0  9995","l2":"2 33396  98.5553 261.3845 0001161  92.9402 267.1908 14.20136809923231"},{"id":"33412","name":"SKYMED 3","type":"PAYLOAD","l1":"1 33412U 08054A   26205.32486881  .00003020  00000-0  20459-3 0  9993","l2":"2 33412  97.8252  64.5092 0016825 135.5176 224.7405 15.07160981962531"},{"id":"33446","name":"YAOGAN 4","type":"PAYLOAD","l1":"1 33446U 08061A   26205.27081002  .00001020  00000-0  13115-3 0  9997","l2":"2 33446  97.9302 138.5089 0013165 314.5675  45.4463 14.83265502951167"},{"id":"33492","name":"GOSAT (IBUKI)","type":"PAYLOAD","l1":"1 33492U 09002A   26205.29763552  .00000613  00000-0  11659-3 0  9991","l2":"2 33492  98.0915 315.9191 0001090  93.6999 266.4330 14.67542684936907"},{"id":"35681","name":"DEIMOS 1","type":"PAYLOAD","l1":"1 35681U 09041A   26205.28729032  .00000662  00000-0  10488-3 0  9993","l2":"2 35681  97.7447   0.9156 0002786  80.6664 279.4861 14.75271427912354"}]}